2026-083G
1 68759U 26083G   26108.42327599  .00001548  00000+0  10803-3 0  9994
2 68759  96.9507 248.5736 0010271 253.5255 106.4846 15.06603440   194
