{
  "norad_id": 68759,
  "name": "2026-083G",
  "history": [
    {
      "epoch": "2026-04-18T10:09:31.045536Z",
      "apogee_km": 553.7007067082986,
      "perigee_km": 539.4755208960205,
      "latitude_deg": 4.027856255743398e-05,
      "longitude_deg": -110.34824814646754,
      "height_km": 551.6981881224502,
      "semi_major_axis_km": 6924.725113802159,
      "eccentricity": 0.00102713,
      "inclination_deg": 96.9507,
      "raan_deg": 248.5736,
      "arg_perigee_deg": 253.5255,
      "mean_anomaly_deg": 106.4846,
      "mean_motion_rev_day": 15.0660344
    }
  ]
}